[{"OBJECT_NAME":"COSMOS 1953","OBJECT_ID":"1988-050A","EPOCH":"2026-03-06T08:27:21.105504","MEAN_MOTION":15.28452731,"ECCENTRICITY":0.00123872,"INCLINATION":82.5105,"RA_OF_ASC_NODE":161.6021,"ARG_OF_PERICENTER":133.2104,"MEAN_ANOMALY":227.0173,"EPHEMERIS_TYPE":0,"CLASSIFICATION_TYPE":"U","NORAD_CAT_ID":19210,"ELEMENT_SET_NO":999,"REV_AT_EPOCH":3727,"BSTAR":0.00036585674,"MEAN_MOTION_DOT":0.00010187,"MEAN_MOTION_DDOT":0},{"OBJECT_NAME":"SL-8 R/B","OBJECT_ID":"1988-053B","EPOCH":"2026-03-06T13:03:17.629920","MEAN_MOTION":14.38913669,"ECCENTRICITY":0.00213759,"INCLINATION":74.0465,"RA_OF_ASC_NODE":118.2653,"ARG_OF_PERICENTER":298.0011,"MEAN_ANOMALY":206.3496,"EPHEMERIS_TYPE":0,"CLASSIFICATION_TYPE":"U","NORAD_CAT_ID":19257,"ELEMENT_SET_NO":999,"REV_AT_EPOCH":97614,"BSTAR":0.0001221607,"MEAN_MOTION_DOT":3.51e-6,"MEAN_MOTION_DDOT":0},{"OBJECT_NAME":"COSMOS 1975","OBJECT_ID":"1988-093A","EPOCH":"2026-03-06T04:31:35.146272","MEAN_MOTION":15.28008132,"ECCENTRICITY":0.00118677,"INCLINATION":82.5188,"RA_OF_ASC_NODE":121.2001,"ARG_OF_PERICENTER":175.1443,"MEAN_ANOMALY":184.9914,"EPHEMERIS_TYPE":0,"CLASSIFICATION_TYPE":"U","NORAD_CAT_ID":19573,"ELEMENT_SET_NO":999,"REV_AT_EPOCH":1887,"BSTAR":0.00030187089,"MEAN_MOTION_DOT":8.295e-5,"MEAN_MOTION_DDOT":0},{"OBJECT_NAME":"SL-14 R/B","OBJECT_ID":"1988-093B","EPOCH":"2026-03-06T09:08:16.158912","MEAN_MOTION":14.85651838,"ECCENTRICITY":0.00219645,"INCLINATION":82.5299,"RA_OF_ASC_NODE":45.1501,"ARG_OF_PERICENTER":51.8689,"MEAN_ANOMALY":109.4415,"EPHEMERIS_TYPE":0,"CLASSIFICATION_TYPE":"U","NORAD_CAT_ID":19574,"ELEMENT_SET_NO":999,"REV_AT_EPOCH":52,"BSTAR":9.2238184e-5,"MEAN_MOTION_DOT":8.27e-6,"MEAN_MOTION_DDOT":0},{"OBJECT_NAME":"SL-16 R/B","OBJECT_ID":"1988-102B","EPOCH":"2026-03-06T08:57:22.827168","MEAN_MOTION":14.16150141,"ECCENTRICITY":0.00137339,"INCLINATION":71,"RA_OF_ASC_NODE":158.4751,"ARG_OF_PERICENTER":6.74,"MEAN_ANOMALY":353.3905,"EPHEMERIS_TYPE":0,"CLASSIFICATION_TYPE":"U","NORAD_CAT_ID":19650,"ELEMENT_SET_NO":999,"REV_AT_EPOCH":92642,"BSTAR":0.00011628005,"MEAN_MOTION_DOT":1.82e-6,"MEAN_MOTION_DDOT":0},{"OBJECT_NAME":"INTERCOSMOS 24","OBJECT_ID":"1989-080A","EPOCH":"2026-03-06T03:34:16.993056","MEAN_MOTION":12.59551016,"ECCENTRICITY":0.118676,"INCLINATION":82.603,"RA_OF_ASC_NODE":106.7103,"ARG_OF_PERICENTER":301.0471,"MEAN_ANOMALY":47.9344,"EPHEMERIS_TYPE":0,"CLASSIFICATION_TYPE":"U","NORAD_CAT_ID":20261,"ELEMENT_SET_NO":999,"REV_AT_EPOCH":66635,"BSTAR":0.00024600761,"MEAN_MOTION_DOT":8.27e-6,"MEAN_MOTION_DDOT":0},{"OBJECT_NAME":"SL-14 R/B","OBJECT_ID":"1989-080C","EPOCH":"2026-03-06T08:31:14.458944","MEAN_MOTION":12.50488976,"ECCENTRICITY":0.12304461,"INCLINATION":82.5973,"RA_OF_ASC_NODE":175.3263,"ARG_OF_PERICENTER":192.3694,"MEAN_ANOMALY":164.4455,"EPHEMERIS_TYPE":0,"CLASSIFICATION_TYPE":"U","NORAD_CAT_ID":20262,"ELEMENT_SET_NO":999,"REV_AT_EPOCH":65973,"BSTAR":0.00026385354,"MEAN_MOTION_DOT":8.87e-6,"MEAN_MOTION_DDOT":0},{"OBJECT_NAME":"DELTA 1 R/B","OBJECT_ID":"1989-089B","EPOCH":"2026-03-06T07:26:22.313472","MEAN_MOTION":14.50659968,"ECCENTRICITY":0.00702627,"INCLINATION":97.0707,"RA_OF_ASC_NODE":273.2862,"ARG_OF_PERICENTER":132.5106,"MEAN_ANOMALY":228.2056,"EPHEMERIS_TYPE":0,"CLASSIFICATION_TYPE":"U","NORAD_CAT_ID":20323,"ELEMENT_SET_NO":999,"REV_AT_EPOCH":89524,"BSTAR":0.00012720245,"MEAN_MOTION_DOT":4.81e-6,"MEAN_MOTION_DDOT":0},{"OBJECT_NAME":"ARIANE 40 R/B","OBJECT_ID":"1990-005H","EPOCH":"2026-03-06T09:48:11.294784","MEAN_MOTION":14.39867975,"ECCENTRICITY":0.00096416,"INCLINATION":98.309,"RA_OF_ASC_NODE":126.1676,"ARG_OF_PERICENTER":208.5951,"MEAN_ANOMALY":151.471,"EPHEMERIS_TYPE":0,"CLASSIFICATION_TYPE":"U","NORAD_CAT_ID":20443,"ELEMENT_SET_NO":999,"REV_AT_EPOCH":89233,"BSTAR":0.00013222166,"MEAN_MOTION_DOT":3.73e-6,"MEAN_MOTION_DDOT":0},{"OBJECT_NAME":"DELTA 2 R/B(1)","OBJECT_ID":"1990-008B","EPOCH":"2026-03-06T10:08:42.055872","MEAN_MOTION":15.55480561,"ECCENTRICITY":0.00861642,"INCLINATION":35.6042,"RA_OF_ASC_NODE":196.2874,"ARG_OF_PERICENTER":228.5737,"MEAN_ANOMALY":130.757,"EPHEMERIS_TYPE":0,"CLASSIFICATION_TYPE":"U","NORAD_CAT_ID":20453,"ELEMENT_SET_NO":999,"REV_AT_EPOCH":92562,"BSTAR":0.00084423323,"MEAN_MOTION_DOT":0.0007104,"MEAN_MOTION_DDOT":0},{"OBJECT_NAME":"COSMOS 2058","OBJECT_ID":"1990-010A","EPOCH":"2026-03-06T09:41:33.733824","MEAN_MOTION":15.11285256,"ECCENTRICITY":0.00096341,"INCLINATION":82.467,"RA_OF_ASC_NODE":50.6649,"ARG_OF_PERICENTER":354.4858,"MEAN_ANOMALY":5.6264,"EPHEMERIS_TYPE":0,"CLASSIFICATION_TYPE":"U","NORAD_CAT_ID":20465,"ELEMENT_SET_NO":999,"REV_AT_EPOCH":94174,"BSTAR":0.00030893801,"MEAN_MOTION_DOT":5.232e-5,"MEAN_MOTION_DDOT":0},{"OBJECT_NAME":"SL-14 R/B","OBJECT_ID":"1990-010B","EPOCH":"2026-03-06T12:24:20.711232","MEAN_MOTION":14.83565721,"ECCENTRICITY":0.00187296,"INCLINATION":82.4989,"RA_OF_ASC_NODE":270.3699,"ARG_OF_PERICENTER":313.4741,"MEAN_ANOMALY":46.4916,"EPHEMERIS_TYPE":0,"CLASSIFICATION_TYPE":"U","NORAD_CAT_ID":20466,"ELEMENT_SET_NO":999,"REV_AT_EPOCH":92801,"BSTAR":6.4085144e-5,"MEAN_MOTION_DOT":5.53e-6,"MEAN_MOTION_DDOT":0},{"OBJECT_NAME":"SL-14 R/B","OBJECT_ID":"1990-018B","EPOCH":"2026-03-06T09:31:12.816768","MEAN_MOTION":14.82140673,"ECCENTRICITY":0.00176455,"INCLINATION":82.5196,"RA_OF_ASC_NODE":226.1676,"ARG_OF_PERICENTER":102.0218,"MEAN_ANOMALY":258.2976,"EPHEMERIS_TYPE":0,"CLASSIFICATION_TYPE":"U","NORAD_CAT_ID":20511,"ELEMENT_SET_NO":999,"REV_AT_EPOCH":92209,"BSTAR":8.8242114e-5,"MEAN_MOTION_DOT":7.28e-6,"MEAN_MOTION_DDOT":0},{"OBJECT_NAME":"HST","OBJECT_ID":"1990-037B","EPOCH":"2026-03-06T02:13:50.589696","MEAN_MOTION":15.2941463,"ECCENTRICITY":0.00017959,"INCLINATION":28.4707,"RA_OF_ASC_NODE":64.5335,"ARG_OF_PERICENTER":90.2676,"MEAN_ANOMALY":269.8125,"EPHEMERIS_TYPE":0,"CLASSIFICATION_TYPE":"U","NORAD_CAT_ID":20580,"ELEMENT_SET_NO":999,"REV_AT_EPOCH":77276,"BSTAR":0.00027789618,"MEAN_MOTION_DOT":8.39e-5,"MEAN_MOTION_DDOT":0},{"OBJECT_NAME":"SL-16 R/B","OBJECT_ID":"1990-046B","EPOCH":"2026-03-06T15:46:43.057056","MEAN_MOTION":14.15013556,"ECCENTRICITY":0.00162047,"INCLINATION":70.9993,"RA_OF_ASC_NODE":304.2832,"ARG_OF_PERICENTER":303.6768,"MEAN_ANOMALY":56.2809,"EPHEMERIS_TYPE":0,"CLASSIFICATION_TYPE":"U","NORAD_CAT_ID":20625,"ELEMENT_SET_NO":999,"REV_AT_EPOCH":84796,"BSTAR":-9.6456721e-5,"MEAN_MOTION_DOT":-2.35e-6,"MEAN_MOTION_DDOT":0},{"OBJECT_NAME":"COSMOS 2084","OBJECT_ID":"1990-055A","EPOCH":"2026-03-06T03:15:11.772288","MEAN_MOTION":15.05624406,"ECCENTRICITY":0.00176592,"INCLINATION":62.7926,"RA_OF_ASC_NODE":347.6992,"ARG_OF_PERICENTER":189.0828,"MEAN_ANOMALY":170.9956,"EPHEMERIS_TYPE":0,"CLASSIFICATION_TYPE":"U","NORAD_CAT_ID":20663,"ELEMENT_SET_NO":999,"REV_AT_EPOCH":93578,"BSTAR":0.00022604387,"MEAN_MOTION_DOT":3.086e-5,"MEAN_MOTION_DDOT":0},{"OBJECT_NAME":"SL-6 R/B(2)","OBJECT_ID":"1990-055D","EPOCH":"2026-03-06T12:17:48.980544","MEAN_MOTION":15.03576421,"ECCENTRICITY":0.00242287,"INCLINATION":62.7821,"RA_OF_ASC_NODE":264.6562,"ARG_OF_PERICENTER":346.2271,"MEAN_ANOMALY":13.8164,"EPHEMERIS_TYPE":0,"CLASSIFICATION_TYPE":"U","NORAD_CAT_ID":20666,"ELEMENT_SET_NO":999,"REV_AT_EPOCH":93771,"BSTAR":0.00021050176,"MEAN_MOTION_DOT":2.707e-5,"MEAN_MOTION_DDOT":0}]
